[{"OBJECT_NAME":"STARLINK-32743","OBJECT_ID":"2024-254U","EPOCH":"2026-03-09T04:47:44.708928","MEAN_MOTION":15.27585096,"ECCENTRICITY":0.00029067,"INCLINATION":42.9994,"RA_OF_ASC_NODE":18.6534,"ARG_OF_PERICENTER":253.1247,"MEAN_ANOMALY":106.9286,"EPHEMERIS_TYPE":0,"CLASSIFICATION_TYPE":"U","NORAD_CAT_ID":62480,"ELEMENT_SET_NO":999,"REV_AT_EPOCH":6758,"BSTAR":0.00093197303,"MEAN_MOTION_DOT":0.00025478,"MEAN_MOTION_DDOT":0},{"OBJECT_NAME":"TRANSPORTER-13 OBJECT AH","OBJECT_ID":"2025-052AH","EPOCH":"2026-03-09T15:34:17.115744","MEAN_MOTION":15.25468797,"ECCENTRICITY":0.000807,"INCLINATION":97.3962,"RA_OF_ASC_NODE":323.1443,"ARG_OF_PERICENTER":138.7508,"MEAN_ANOMALY":221.4341,"EPHEMERIS_TYPE":0,"CLASSIFICATION_TYPE":"U","NORAD_CAT_ID":63241,"ELEMENT_SET_NO":999,"REV_AT_EPOCH":5475,"BSTAR":0.00055931,"MEAN_MOTION_DOT":0.00014108,"MEAN_MOTION_DDOT":0}]
